OBJECT_NAME,OBJECT_ID,EPOCH,MEAN_MOTION,ECCENTRICITY,INCLINATION,RA_OF_ASC_NODE,ARG_OF_PERICENTER,MEAN_ANOMALY,EPHEMERIS_TYPE,CLASSIFICATION_TYPE,NORAD_CAT_ID,ELEMENT_SET_NO,REV_AT_EPOCH,BSTAR,MEAN_MOTION_DOT,MEAN_MOTION_DDOT
ONEWEB-0667,2023-029AH,2026-06-03T07:34:33.907872,13.20771493,.00018227,87.9191,277.1949,99.1302,261.0038,0,U,55827,999,15931,.18234756E-4,.2E-6,0
ONEWEB-0669,2023-029AJ,2026-06-03T07:27:16.965792,13.20770840,.00023835,87.9195,277.2059,94.2481,265.8925,0,U,55828,999,15931,.84648974E-4,.47E-6,0
ONEWEB-0670,2023-029AK,2026-06-03T10:26:21.954048,13.14492551,.0002187,87.8988,292.4816,96.4969,263.6410,0,U,55829,999,15762,.35180427E-2,.1317E-4,0
ONEWEB-0671,2023-029AL,2026-06-03T11:48:52.846848,13.19727806,.0001664,87.9144,307.7055,95.0299,265.1023,0,U,55830,999,15709,.55641E-3,.236E-5,0
ONEWEB-0672,2023-029AM,2026-06-03T07:20:00.283776,13.20770462,.00021497,87.9202,277.1999,108.0971,252.0397,0,U,55831,999,15931,.21406518E-3,.1E-5,0
ONEWEB-0673,2023-029AN,2026-06-03T11:15:55.971648,13.19725766,.00017726,87.9168,307.7007,90.3964,269.7372,0,U,55832,999,15709,.1233617E-3,.62E-6,0
ONEWEB-0674,2023-029AP,2026-06-03T07:51:05.015232,13.14503282,.00018262,87.8946,292.4804,91.2773,268.8566,0,U,55833,999,15759,-.10309717E-3,-.25E-6,0
ONEWEB-0675,2023-029AQ,2026-06-03T11:37:31.823904,13.19727388,.00019309,87.9157,307.7084,105.8365,254.2980,0,U,55834,999,15711,-.38805876E-4,-.3E-7,0
ONEWEB-0720,2023-029AR,2026-06-03T11:26:08.910528,13.19726764,.00015532,87.9162,307.7110,107.6174,252.5128,0,U,55835,999,15703,-.16971075E-4,.6E-7,0
ONEWEB-0537,2023-043A,2026-06-03T14:11:14.710272,13.16593697,.000221,87.9107,231.4707,104.1348,256.0029,0,U,56046,999,15717,.14758959E-3,.69E-6,0
ONEWEB-0538,2023-043B,2026-06-03T14:02:07.685088,13.16594053,.00019493,87.9097,231.4764,107.0666,253.0679,0,U,56047,999,15718,.47340459E-3,.194E-5,0
ONEWEB-0546,2023-043C,2026-06-03T13:43:53.579424,13.16593502,.00026495,87.9105,231.4771,105.8418,254.3005,0,U,56048,999,15717,-.11875532E-3,-.33E-6,0
ONEWEB-0547,2023-043D,2026-06-03T14:56:46.830336,13.21826657,.00018728,87.9262,246.6724,104.5947,255.5394,0,U,56049,999,15643,.62345708E-3,.271E-5,0
ONEWEB-0548,2023-043E,2026-06-03T14:19:13.595232,13.16595225,.00022258,87.9104,231.4687,87.9917,272.1469,0,U,56050,999,15717,.21078831E-3,.93E-6,0
ONEWEB-0549,2023-043F,2026-06-03T14:48:18.829440,13.21824034,.00018601,87.9257,246.6806,110.4910,249.6424,0,U,56051,999,15643,-.21223559E-3,-.75E-6,0
ONEWEB-0550,2023-043G,2026-06-03T07:12:56.387232,13.21825109,.00020368,87.9258,246.7408,94.9760,265.1607,0,U,56052,999,15639,.15312998E-3,.76E-6,0
ONEWEB-0551,2023-043H,2026-06-03T07:30:25.989120,13.15548304,.00017404,87.8997,261.9909,112.7691,247.3623,0,U,56053,999,15457,-.15636908E-3,-.46E-6,0
ONEWEB-0552,2023-043J,2026-06-03T07:05:39.928992,13.21827794,.0001839,87.9257,246.7481,96.6213,263.5131,0,U,56054,999,15639,.2265925E-3,.107E-5,0
ONEWEB-0553,2023-043K,2026-06-03T13:53:00.228768,13.16593314,.00024885,87.9105,231.4767,101.9137,258.2273,0,U,56055,999,15718,.28180409E-4,.24E-6,0
ONEWEB-0554,2023-043L,2026-06-03T06:17:01.691232,13.16594016,.00022162,87.9102,231.5483,93.2358,266.9026,0,U,56056,999,15712,.17787741E-3,.81E-6,0
ONEWEB-0555,2023-043M,2026-06-03T14:29:28.898016,13.16594322,.00026082,87.9107,231.4680,105.9199,254.2220,0,U,56057,999,15717,.11433644E-2,.45E-5,0
ONEWEB-0557,2023-043N,2026-06-03T14:49:59.698848,13.16593525,.00031727,87.9104,231.4753,85.8871,274.2622,0,U,56058,999,15717,-.20342852E-3,-.65E-6,0
ONEWEB-0558,2023-043P,2026-06-03T06:55:58.159776,13.21826736,.0001937,87.9258,246.7437,109.0233,251.1111,0,U,56059,999,15640,.18746077E-3,.9E-6,0
ONEWEB-0559,2023-043Q,2026-06-03T06:39:00.265824,13.21826587,.00017908,87.9258,246.7402,102.5011,257.6324,0,U,56060,999,15641,.26469121E-3,.122E-5,0
ONEWEB-0566,2023-043R,2026-06-03T06:29:20.139936,13.21825871,.00016879,87.9258,246.7399,104.7467,255.3854,0,U,56061,999,15639,.16163185E-3,.8E-6,0
ONEWEB-0568,2023-043S,2026-06-03T15:15:04.963968,13.16593264,.00023738,87.9105,231.4622,102.5521,257.5875,0,U,56062,999,15719,-.23884899E-4,.4E-7,0
ONEWEB-0574,2023-043T,2026-06-03T06:19:37.963776,13.21826569,.00021483,87.9267,246.7429,95.7800,264.3579,0,U,56063,999,15643,.11156427E-3,.59E-6,0
ONEWEB-0575,2023-043U,2026-06-03T15:05:57.787584,13.16593570,.00024466,87.9102,231.4596,92.3346,267.8065,0,U,56064,999,15718,-.15894267E-3,-.48E-6,0
ONEWEB-0576,2023-043V,2026-06-03T14:38:35.517984,13.16593459,.00022403,87.9108,231.4704,95.9159,264.2227,0,U,56065,999,15717,.3287139E-5,.14E-6,0
ONEWEB-0577,2023-043W,2026-06-03T14:47:42.965664,13.16593010,.00026124,87.9106,231.4668,85.2698,274.8731,0,U,56066,999,15720,-.17096819E-4,.6E-7,0
